OID;Longitude;Latitude;Grid_id;GRIDTYPE;GRIDTYPECODE;TOT_CO2_STORES;LANDFALL;ONSHORE_GRIDS;IMPORT_LOCATIONS;EMISSION_FACTOR;LOCATION_FACTOR;AVAILABILITY;HARBOUR;latitude;longitude;parent_name
CID75;-6.483272;38.3792;1;CEMENT;11;0;0;1;1;0;1;1;0;38.3792;-6.483272;AG Cementos Balboa SA
CID76;-2.773979;43.206524;2;CEMENT;11;0;0;1;1;0;1;1;0;43.206524;-2.773979;CRH PLC
CID77;-4.15978;42.874825;3;CEMENT;11;0;0;1;1;0;1;1;0;42.874825;-4.15978;Cementos Portland Valderrivas SA
CID78;-3.474441;40.244961;4;CEMENT;11;0;0;1;1;0;1;1;0;40.244961;-3.474441;Cementos Portland Valderrivas SA
CID79;-2.190187;42.882983;5;CEMENT;11;0;0;1;1;0;1;1;0;42.882983;-2.190187;Cementos Portland Valderrivas SA
CID80;-4.46587;41.941676;6;CEMENT;11;0;0;1;1;0;1;1;0;41.941676;-4.46587;Cementos Portland Valderrivas SA
CID81;-5.865094;37.359736;7;CEMENT;11;0;0;1;1;0;1;1;0;37.359736;-5.865094;Cementos Portland Valderrivas SA
CID82;-0.77638;39.436556;8;CEMENT;11;0;0;1;1;0;1;1;0;39.436556;-0.77638;CEMEX SAB de CV
CID83;-1.486787;41.475476;9;CEMENT;11;0;0;1;1;0;1;1;0;41.475476;-1.486787;CEMEX SAB de CV
CID84;-0.542867;38.378014;10;CEMENT;11;0;0;1;1;0;1;1;0;38.378014;-0.542867;CEMEX SAB de CV
CID85;0.54329;40.576824;11;CEMENT;11;0;0;1;1;0;1;1;0;40.576824;0.54329;CEMEX SAB de CV
CID86;-3.74396;39.934332;12;CEMENT;11;0;0;1;1;0;1;1;0;39.934332;-3.74396;CEMEX SAB de CV
CID87;-5.722483;43.560582;13;CEMENT;11;0;0;1;1;0;1;1;0;43.560582;-5.722483;Corporacion Masaveu SA
CID88;-5.619632;42.798654;14;CEMENT;11;0;0;1;1;0;1;1;0;42.798654;-5.619632;Corporacion Masaveu SA
CID89;-5.775146;43.33011;15;CEMENT;11;0;0;1;1;0;1;1;0;43.33011;-5.775146;Corporacion Masaveu SA
CID90;-2.899342;43.204824;16;CEMENT;11;0;0;1;1;0;1;1;0;43.204824;-2.899342;HeidelbergCement AG
CID91;-4.329333;36.714681;17;CEMENT;11;0;0;1;1;0;1;1;0;36.714681;-4.329333;HeidelbergCement AG
CID92;-1.997062;43.285684;18;CEMENT;11;0;0;1;1;0;1;1;0;43.285684;-1.997062;HeidelbergCement AG
CID93;-1.904785;36.966885;19;CEMENT;11;0;0;1;1;0;1;1;0;36.966885;-1.904785;LafargeHolcim Ltd
CID94;-6.073448;36.618249;20;CEMENT;11;0;0;1;1;0;1;1;0;36.618249;-6.073448;LafargeHolcim Ltd
CID95;-3.901136;40.009935;21;CEMENT;11;0;0;1;1;0;1;1;0;40.009935;-3.901136;LafargeHolcim Ltd
CID96;2.183652;41.474698;22;CEMENT;11;0;0;1;1;0;1;1;0;41.474698;2.183652;LafargeHolcim Ltd
CID97;-0.246962;39.663613;23;CEMENT;11;0;0;1;1;0;1;1;0;39.663613;-0.246962;LafargeHolcim Ltd
CID98;-4.764202;37.902032;24;CEMENT;11;0;0;1;1;0;1;1;0;37.902032;-4.764202;Votorantim SA
CID99;-6.672312;37.359766;25;CEMENT;11;0;0;1;1;0;1;1;0;37.359766;-6.672312;Votorantim SA
CID100;-7.450123;42.717483;26;CEMENT;11;0;0;1;1;0;1;1;0;42.717483;-7.450123;Votorantim SA
CID101;-6.768733;42.553519;27;CEMENT;11;0;0;1;1;0;1;1;0;42.553519;-6.768733;Votorantim SA
CID102;2.054826;41.402821;28;CEMENT;11;0;0;1;1;0;1;1;0;41.402821;2.054826;
CID103;-9.009904;38.922169;29;CEMENT;11;0;0;1;1;0;1;1;0;38.922169;-9.009904;InterCement Participacoes SA
CID104;-8.100041;37.135933;30;CEMENT;11;0;0;1;1;0;1;1;0;37.135933;-8.100041;InterCement Participacoes SA
CID105;-8.418212;40.289074;31;CEMENT;11;0;0;1;1;0;1;1;0;40.289074;-8.418212;InterCement Participacoes SA
CID106;-8.905132;39.685773;32;CEMENT;11;0;0;1;1;0;1;1;0;39.685773;-8.905132;Secil Companhia Geral de Cal e Cimento SA
CID107;-8.987387;39.655677;33;CEMENT;11;0;0;1;1;0;1;1;0;39.655677;-8.987387;Secil Companhia Geral de Cal e Cimento SA
CID108;-8.935936;38.501466;34;CEMENT;11;0;0;1;1;0;1;1;0;38.501466;-8.935936;Secil Companhia Geral de Cal e Cimento SA
TID29;-8.663498253;41.13424079;35;TERMINAL;30;0;1;1;1;0;1;1;0;;;
TID30;-8.733260846;42.22657922;36;TERMINAL;30;0;1;1;1;0;1;1;0;;;
TID31;-9.230709277;38.65399112;37;TERMINAL;30;0;1;1;1;0;1;1;0;;;
TID32;-6.836272132;37.13771839;38;TERMINAL;30;0;1;1;1;0;1;1;0;;;
TID33;-8.672211406;37.0911769;39;TERMINAL;30;0;1;1;1;0;1;1;0;;;
TID34;-6.264301724;36.59514261;40;TERMINAL;30;0;1;1;1;0;1;1;0;;;
SID125;-9.314880884;41.74543596;41;STORAGE;20;47;0;0;1;0;1;1;0;;;
SID126;-9.111930411;41.70771411;42;STORAGE;20;82;0;0;1;0;1;1;0;;;
SID127;-9.31414525;41.61267248;43;STORAGE;20;512;0;0;1;0;1;1;0;;;
SID128;-9.086832549;41.50837801;44;STORAGE;20;421;0;0;1;0;1;1;0;;;
SID129;-9.035248971;41.30790522;45;STORAGE;20;172;0;0;1;0;1;1;0;;;
SID130;-9.126299562;41.45862027;46;STORAGE;20;166;0;0;1;0;1;1;0;;;
SID131;-9.127339734;41.12663299;47;STORAGE;20;378;0;0;1;0;1;1;0;;;
SID132;-8.922661842;41.09598137;48;STORAGE;20;134;0;0;1;0;1;1;0;;;
SID133;-9.223876447;40.62447075;49;STORAGE;20;603;0;0;1;0;1;1;0;;;
SID134;-9.039894757;40.51187346;50;STORAGE;20;240;0;0;1;0;1;1;0;;;
SID135;-9.306395747;40.4087355;51;STORAGE;20;323;0;0;1;0;1;1;0;;;
SID136;-9.026874008;40.32061279;52;STORAGE;20;335;0;0;1;0;1;1;0;;;
SID137;-9.485219826;40.17655026;53;STORAGE;20;211;0;0;1;0;1;1;0;;;
SID138;-9.486527492;40.16902891;54;STORAGE;20;68;0;0;1;0;1;1;0;;;
SID139;-9.313879323;40.14488738;55;STORAGE;20;157;0;0;1;0;1;1;0;;;
SID140;-9.187661843;40.03689421;56;STORAGE;20;10;0;0;1;0;1;1;0;;;
SID141;-9.21104047;39.94828841;57;STORAGE;20;106;0;0;1;0;1;1;0;;;
SID142;-9.262704784;39.8999413;58;STORAGE;20;10;0;0;1;0;1;1;0;;;
SID143;-9.345183382;39.82818359;59;STORAGE;20;5;0;0;1;0;1;1;0;;;
SID144;-9.300848103;39.71735804;60;STORAGE;20;1024;0;0;1;0;1;1;0;;;
SID145;-8.969029243;39.62591193;61;STORAGE;20;182;0;0;1;0;1;1;0;;;
SID146;-9.023099386;39.39648525;62;STORAGE;20;27;0;0;1;0;1;1;0;;;
SID147;-8.951758457;38.34034365;63;STORAGE;20;29;0;0;1;0;1;1;0;;;
SID148;-8.82748819;38.27197658;64;STORAGE;20;15;0;0;1;0;1;1;0;;;
SID149;-8.954695236;38.20444252;65;STORAGE;20;19;0;0;1;0;1;1;0;;;
SID150;-9.034032476;38.13253649;66;STORAGE;20;22;0;0;1;0;1;1;0;;;
SID151;-8.398951181;36.78875451;67;STORAGE;20;183;0;0;1;0;1;1;0;;;
SID152;-8.398951181;36.78875451;68;STORAGE;20;662;0;0;1;0;1;1;0;;;
SID153;-7.729175523;36.79973559;69;STORAGE;20;86;0;0;1;0;1;1;0;;;
SID154;-7.566468288;36.90185608;70;STORAGE;20;38;0;0;1;0;1;1;0;;;
SID155;-7.324579604;36.7747261;71;STORAGE;20;210;0;0;1;0;1;1;0;;;
SID156;-7.431036506;36.55563772;72;STORAGE;20;68;0;0;1;0;1;1;0;;;
